{
  "norad_id": 57349,
  "name": "STARLINK-6376",
  "history": [
    {
      "epoch": "2026-03-28T14:55:56.101440Z",
      "apogee_km": 486.5298175893995,
      "perigee_km": 484.67276455736646,
      "latitude_deg": -2.106269695734974e-05,
      "longitude_deg": 91.89653998863626,
      "height_km": 485.3678821133176,
      "semi_major_axis_km": 6863.738291073382,
      "eccentricity": 0.00013528,
      "inclination_deg": 43.0025,
      "raan_deg": 141.9203,
      "arg_perigee_deg": 270.6441,
      "mean_anomaly_deg": 89.4255,
      "mean_motion_rev_day": 15.26728062
    }
  ]
}