{"fetched_at":"2026-03-29T16:36:15Z","count":15609,"tles":[{"name":"STARLINK-6376","line1":"1 57349U 23099X   26087.62217710  .00004968  00000+0  19482-3 0  9993","line2":"2 57349  43.0025 141.9203 0001352 270.6441  89.4255 15.26728062149735","category":"Starlink"}]}